ISS OBJECT XW           
1 66910U 98067XW  26060.35238090  .00122188  00000+0  11540-2 0  9990
2 66910  51.6248 107.9715 0004687  42.0873 318.0482 15.66113269 13874
ISS OBJECT XX           
1 66911U 98067XX  26060.83028501  .00212327  00000+0  15933-2 0  9993
2 66911  51.6226 104.4016 0006966  37.9423 322.2065 15.71384697 13957
ISS OBJECT XY           
1 66912U 98067XY  26060.52466736  .00087122  00000+0  97245-3 0  9996
2 66912  51.6275 108.3853 0002711  46.2509 313.8709 15.62037373 13874
ISS OBJECT XZ           
1 67683U 98067XZ  26060.74047328  .00041861  00000+0  70811-3 0  9998
2 67683  51.6323 111.3281 0009604 159.6177 200.5198 15.51106476  3558
GXIBA-1                 
1 67684U 98067YA  26060.53111715  .00075127  00000+0  11805-2 0  9997
2 67684  51.6306 112.1796 0011045 149.3528 210.8109 15.52893604  3528
CORAL                   
1 67685U 98067YB  26060.54442134  .00046739  00000+0  78123-3 0  9995
2 67685  51.6314 112.2682 0011563 154.9527 205.2026 15.51369828  3520
ISS OBJECT YC           
1 67686U 98067YC  26060.41246377  .00054052  00000+0  89126-3 0  9995
2 67686  51.6316 112.8884 0007665 122.7439 237.4290 15.51728286  3501
LEOPARD                 
1 67687U 98067YD  26060.73893028  .00043630  00000+0  73456-3 0  9991
2 67687  51.6315 111.3180 0007663 127.4895 232.6792 15.51238778  3472
ISS OBJECT YE           
1 67688U 98067YE  26060.41383434  .00050179  00000+0  83355-3 0  9997
2 67688  51.6318 112.8976 0007609 123.4438 236.7280 15.51553933  3429
CREW DRAGON 12          
1 67796U 26031A   26060.57520306  .00009927  00000+0  19202-3 0  9992
2 67796  51.6320 112.4722 0008284 146.1756 213.9762 15.48382986554812
